{"version": 0.6, "generator": "Overpass API 0.7.62.5 1bd436f1", "osm3s": {"timestamp_osm_base": "2025-04-28T21:53:08Z", "copyright": "The data included in this document is from www.openstreetmap.org. The data is made available under ODbL."}, "elements": [{"type": "node", "id": 25765941, "lat": 40.0154927, "lon": -105.2773788}, {"type": "node", "id": 25782064, "lat": 39.9842201, "lon": -105.2493, "tags": {"amenity": "restaurant", "name": "Southern Sun Pub & Brewery", "opening_hours": "Mo-Fr 00:00-01:00,11:30-24:00; Sa,Su 00:00-01:00,11:00-24:00", "phone": "+1-303-543-0886", "website": "https://www.mountainsunpub.com/location/southern-sun-pub-brewery/"}}, {"type": "node", "id": 559695586, "lat": 40.0149794, "lon": -105.245481, "tags": {"addr:city": "Boulder", "addr:housenumber": "1600", "addr:postcode": "80301", "addr:state": "CO", "addr:street": "38th Street", "addr:unit": "100", "amenity": "pub", "microbrewery": "yes", "name": "Boulder Social", "opening_hours": "Mo-Th 11:00-22:00, Fr-Sa 11:00-23:00, Su 11:00-21:00", "phone": "+1-720-716-3345", "website": "https://www.besocialcolorado.com/bouldersocial", "wheelchair": "yes"}}, {"type": "node", "id": 564839535, "lat": 40.0134852, "lon": -105.2604133, "tags": {"addr:city": "Boulder", "addr:housenumber": "2580", "addr:postcode": "80302", "addr:state": "CO", "addr:street": "Arapahoe Avenue", "addr:unit": "110", "amenity": "restaurant", "level": "0", "name": "Flower Child", "opening_hours": "Mo-Su 11:00-20:30", "source": "esri_USDOT_ColoradoOITGIS", "website": "https://www.iamaflowerchild.com/locations/boulder-co/"}}, {"type": "node", "id": 564844862, "lat": 39.9987525, "lon": -105.261618, "tags": {"addr:housenumber": "2500", "addr:street": "Baseline Road", "amenity": "restaurant", "cuisine": "asian", "level": "0", "name": "May Wah", "opening_hours": "Mo-Sa 11:00-20:30; Su 16:00-20:30", "phone": "+1-303-499-8225", "website": "https://www.maywah.net/"}}, {"type": "node", "id": 741507323, "lat": 39.9850904, "lon": -105.2387416, "tags": {"amenity": "restaurant", "name": "Nepal Cuisine"}}, {"type": "node", "id": 973418600, "lat": 39.9844442, "lon": -105.2498875, "tags": {"addr:housenumber": "619", "addr:postcode": "80305", "addr:street": "South Broadway", "amenity": "restaurant", "cuisine": "indian", "name": "Tandoori Grill", "phone": "+1-303-543-7339"}}, {"type": "node", "id": 1030768641, "lat": 39.9989558, "lon": -105.2555129}, {"type": "node", "id": 1030768667, "lat": 39.9989187, "lon": -105.2554049}, {"type": "node", "id": 1030768687, "lat": 39.9992167, "lon": -105.2552825}, {"type": "node", "id": 1030768699, "lat": 39.9992005, "lon": -105.2553675}, {"type": "node", "id": 1030768710, "lat": 39.998936, "lon": -105.2554925}, {"type": "node", "id": 1030768711, "lat": 39.9992001, "lon": -105.2554194}, {"type": "node", "id": 1030768735, "lat": 39.9990263, "lon": -105.255514}, {"type": "node", "id": 1030768745, "lat": 39.9992009, "lon": -105.255304}, {"type": "node", "id": 1030768751, "lat": 39.9989192, "lon": -105.2554414}, {"type": "node", "id": 1030768761, "lat": 39.9992138, "lon": -105.2553843}, {"type": "node", "id": 1030768763, "lat": 39.9990133, "lon": -105.2554623}, {"type": "node", "id": 1030768769, "lat": 39.9992018, "lon": -105.2551769}, {"type": "node", "id": 1030768785, "lat": 39.9992133, "lon": -105.2553395}, {"type": "node", "id": 1030768800, "lat": 39.9992006, "lon": -105.2553393}, {"type": "node", "id": 1030768805, "lat": 39.9992135, "lon": -105.2554164}, {"type": "node", "id": 1030768822, "lat": 39.9990637, "lon": -105.2551378}, {"type": "node", "id": 1030768833, "lat": 39.9992165, "lon": -105.2553043}, {"type": "node", "id": 1030768856, "lat": 39.9992008, "lon": -105.2552823}, {"type": "node", "id": 1030768882, "lat": 39.9992002, "lon": -105.2554162}, {"type": "node", "id": 1030768917, "lat": 39.999213, "lon": -105.2553677}, {"type": "node", "id": 1030768966, "lat": 39.9990268, "lon": -105.2554625}, {"type": "node", "id": 1030769006, "lat": 39.9990633, "lon": -105.2551748}, {"type": "node", "id": 1030769025, "lat": 39.9992003, "lon": -105.2553841}, {"type": "node", "id": 1030769028, "lat": 39.9989211, "lon": -105.2551356}, {"type": "node", "id": 1030769049, "lat": 39.9989245, "lon": -105.2554704}, {"type": "node", "id": 1030769052, "lat": 39.9990137, "lon": -105.2554081}, {"type": "node", "id": 1030769077, "lat": 39.9990516, "lon": -105.2554087}, {"type": "node", "id": 1030769082, "lat": 39.9990516, "lon": -105.2554172}, {"type": "node", "id": 1098988278, "lat": 40.0170928, "lon": -105.2832256, "tags": {"amenity": "restaurant", "cuisine": "fish", "name": "Jax Fish House", "website": "https://www.jaxfishhouse.com/boulder/"}}, {"type": "node", "id": 1098989177, "lat": 40.0175271, "lon": -105.2824523, "tags": {"addr:city": "Boulder", "addr:housenumber": "1001", "addr:postcode": "80302", "addr:street": "Pearl Street", "amenity": "restaurant", "cuisine": "italian", "level": "0", "name": "Pasta Jay's", "opening_hours": "Mo-Sa 11:00-23:00; Su 11:00-22:00", "website": "https://pastajays.com/locations/boulder/"}}, {"type": "node", "id": 1100122077, "lat": 40.0243806, "lon": -105.2821797}, {"type": "node", "id": 1100122144, "lat": 40.0243799, "lon": -105.2823907}, {"type": "node", "id": 1100122147, "lat": 40.0242768, "lon": -105.282179}, {"type": "node", "id": 1100122167, "lat": 40.0242764, "lon": -105.2822804}, {"type": "node", "id": 1100122182, "lat": 40.024276, "lon": -105.2823901}, {"type": "node", "id": 1109715188, "lat": 40.059487, "lon": -105.2819286, "tags": {"addr:city": "Boulder", "addr:housenumber": "4670", "addr:postcode": "80304", "addr:state": "CO", "addr:street": "Broadway", "amenity": "restaurant", "cuisine": "pizza", "name": "Proto's Pizza", "opening_hours": "Mo-Su 11:00-21:00; Fr,Sa 11:00-22:00", "website": "https://protospizza.com/locations/protos-boulder/"}}, {"type": "node", "id": 1109738198, "lat": 40.0557895, "lon": -105.2826504, "tags": {"addr:city": "Boulder", "addr:housenumber": "4479", "addr:postcode": "80304", "addr:state": "CO", "addr:street": "Broadway", "amenity": "restaurant", "check_date:opening_hours": "2022-11-06", "cuisine": "asian", "name": "Little Tibet", "opening_hours": "Mo-Fr 11:00-21:30; Sa,Su 12:00-21:30", "opening_hours:url": "https://www.littletibetrestaurant.com/", "outdoor_seating": "yes", "source:opening_hours": "website", "website": "https://www.littletibetrestaurant.com/"}}, {"type": "node", "id": 1182911431, "lat": 40.0074341, "lon": -105.276064, "tags": {"addr:housenumber": "1100", "addr:street": "13th Street", "amenity": "restaurant", "cuisine": "american;sandwich", "name": "The Corner", "opening_hours": "Mo-Fr 07:30-22:00; Sa,Su 08:30-22:00", "phone": "+1-720-398-8331", "website": "https://www.thecornerboulder.com/"}}, {"type": "node", "id": 1185570503, "lat": 39.9989194, "lon": -105.2538015, "tags": {"addr:city": "Boulder", "addr:housenumber": "659", "addr:street": "30th Street", "amenity": "restaurant", "check_date:opening_hours": "2022-11-22", "cuisine": "pizza", "name": "Cosmo's Pizza", "opening_hours": "Mo-Su 11:00-24:00", "opening_hours:url": "http://cosmospizza.com/boulder-30th-location/", "phone": "+1-303-447-3278", "source:opening_hours": "website", "website": "http://cosmospizza.com/boulder-30th-location/"}}, {"type": "node", "id": 1185570506, "lat": 39.9989197, "lon": -105.2533953, "tags": {"addr:city": "Boulder", "addr:housenumber": "645", "addr:street": "30th Street", "amenity": "restaurant", "check_date:opening_hours": "2022-11-22", "cuisine": "italian", "name": "Carelli's", "opening_hours": "Mo-Th 16:00-21:00; Fr,Sa 16:00-21:30", "opening_hours:url": "https://carellis.com/contact/", "phone": "+1-303-938-9300", "source:opening_hours": "website", "website": "http://www.carrelis.com"}}, {"type": "node", "id": 1185570523, "lat": 39.9991059, "lon": -105.253974, "tags": {"addr:city": "Boulder", "addr:housenumber": "675", "addr:street": "30th Street", "amenity": "restaurant", "check_date:opening_hours": "2022-11-22", "cuisine": "barbecue", "name": "Moe's Original Bar B Que", "not:brand:wikidata": "Q6889938", "opening_hours": "Mo-Su 11:30-20:00; Fr,Sa 11:30-21:00", "opening_hours:url": "https://www.moesoriginalbbq.com/lo/boulder", "phone": "+1-303-440-4227", "source:opening_hours": "website", "website": "https://www.moesoriginalbbq.com/lo/boulder"}}, {"type": "node", "id": 1185574421, "lat": 39.99952, "lon": -105.2611613, "tags": {"addr:housenumber": "2602", "addr:street": "Baseline Road", "amenity": "restaurant", "brand": "Noodles & Company", "brand:wikidata": "Q7049673", "cuisine": "pasta", "level": "0", "name": "Noodles & Company", "opening_hours": "Mo-Su 10:30-21:00", "phone": "+1-720-304-2044", "website": "https://locations.noodles.com/co/boulder/2602-baseline-road.html"}}, {"type": "node", "id": 1211146540, "lat": 39.998269, "lon": -105.2806977}, {"type": "node", "id": 1211146562, "lat": 39.9982712, "lon": -105.2804826}, {"type": "node", "id": 1211146575, "lat": 39.998475, "lon": -105.2807353}, {"type": "node", "id": 1211146578, "lat": 39.9985095, "lon": -105.2804483}, {"type": "node", "id": 1211146581, "lat": 39.9985087, "lon": -105.2805299}, {"type": "node", "id": 1211146584, "lat": 39.9983782, "lon": -105.2806996}, {"type": "node", "id": 1211146595, "lat": 39.9984741, "lon": -105.2808178}, {"type": "node", "id": 1211146599, "lat": 39.9985024, "lon": -105.2806646}, {"type": "node", "id": 1211146617, "lat": 39.9985017, "lon": -105.2807358}, {"type": "node", "id": 1211146621, "lat": 39.9983775, "lon": -105.280446}, {"type": "node", "id": 1211146638, "lat": 39.998377, "lon": -105.2808161}, {"type": "node", "id": 1211146650, "lat": 39.9985359, "lon": -105.2806651}, {"type": "node", "id": 1211146668, "lat": 39.9983771, "lon": -105.2804845}, {"type": "node", "id": 1211146684, "lat": 39.9985373, "lon": -105.2805304}, {"type": "node", "id": 1256872476, "lat": 40.0144892, "lon": -105.2635854, "tags": {"amenity": "restaurant", "cuisine": "mexican", "name": "Fiesta"}}, {"type": "node", "id": 1256872477, "lat": 40.0148445, "lon": -105.263462, "tags": {"addr:city": "Boulder", "addr:housenumber": "2359", "addr:postcode": "80303", "addr:state": "CO", "addr:street": "Arapahoe Avenue", "amenity": "restaurant", "cuisine": "tibetan", "name": "Tibet Kitchen", "opening_hours": "Mo-Sa 11:00-10:00; Su 17:00-22:00", "takeaway": "yes", "website": "http://www.tibetkitchen.com"}}, {"type": "node", "id": 1270005940, "lat": 40.0148353, "lon": -105.2625076, "tags": {"addr:unit": "A-3", "amenity": "restaurant", "name": "Vitality Bowls", "website": "https://vitalitybowls.com/locations/boulder/"}}, {"type": "node", "id": 1270005941, "lat": 40.0139941, "lon": -105.2626031, "tags": {"addr:city": "Boulder", "addr:housenumber": "2416", "addr:postcode": "80302", "addr:state": "CO", "addr:street": "Arapahoe Avenue", "amenity": "restaurant", "contact:phone": "+1-303-442-2500", "cuisine": "indian", "name": "Tiffin's India Cafe", "opening_hours": "Tu-Su 16:00-21:00", "source": "esri_USDOT_ColoradoOITGIS", "website": "https://www.tiffinsindiacafe.com/"}}, {"type": "node", "id": 1270005942, "lat": 40.0149512, "lon": -105.2628237, "tags": {"addr:unit": "A-5", "amenity": "restaurant", "name": "Rinc\u00f3n Argentino", "opening_hours": "Mo-Th,Su 11:00-20:00; Fr-Sa 11:00-21:00", "website": "https://www.rinconargentinoboulder.com"}}, {"type": "node", "id": 1270009487, "lat": 40.0151243, "lon": -105.2604712, "tags": {"addr:unit": "H-1", "amenity": "restaurant", "cuisine": "burger", "name": "Zolo Grill", "website": "https://www.zologrill.com/"}}, {"type": "node", "id": 1305381941, "lat": 40.0207024, "lon": -105.2526644, "tags": {"addr:housenumber": "3073", "addr:street": "Walnut Street", "amenity": "restaurant", "name": "Walnut Cafe", "opening_hours": "07:00-15:00", "website": "https://www.walnutcafe.com/"}}, {"type": "node", "id": 1305383807, "lat": 40.0208425, "lon": -105.2649343, "tags": {"amenity": "restaurant", "cuisine": "regional", "description": "20% service fee charged on top of every bill.", "name": "River and Woods", "opening_hours": "Tu-Fr 16:00-21:00; Sa,Su 10:00-13:30,16:30-21:00", "outdoor_seating": "yes", "service_fee": "20%", "source:service_fee": "website", "website": "https://www.riverandwoodsboulder.com/", "wheelchair": "limited"}}, {"type": "node", "id": 1305391448, "lat": 40.0219453, "lon": -105.259186, "tags": {"amenity": "restaurant", "name": "Black Pepper Pho", "opening_hours": "Mo-Su 11:00-21:00", "phone": "+1-303-440-1948", "wheelchair": "yes"}}, {"type": "node", "id": 1305391487, "lat": 40.0244236, "lon": -105.2549893, "tags": {"addr:city": "Boulder", "addr:housenumber": "2323", "addr:postcode": "80301", "addr:street": "30th Street", "amenity": "restaurant", "name": "L&L Hawaiian Barbeque"}}, {"type": "node", "id": 1305391495, "lat": 40.026812, "lon": -105.2533198, "tags": {"addr:unit": "101", "amenity": "restaurant", "diet:gluten_free": "only", "name": "Just BE Kitchen", "outdoor_seating": "yes", "website": "https://www.justbekitchen.com"}}, {"type": "node", "id": 1305395261, "lat": 40.0192804, "lon": -105.2792787, "tags": {"amenity": "bar", "name": "The Corner Bar", "outdoor_seating": "yes"}}, {"type": "node", "id": 1305395304, "lat": 40.0191577, "lon": -105.279775, "tags": {"addr:city": "Boulder", "addr:housenumber": "1221", "addr:postcode": "80302", "addr:state": "CO", "addr:street": "Spruce Street", "amenity": "restaurant", "cuisine": "sushi", "name": "Sushi Zanmai"}}, {"type": "node", "id": 1305395339, "lat": 40.0192624, "lon": -105.2726309, "tags": {"amenity": "restaurant", "cuisine": "pizza", "name": "Pizzeria Local", "opening_hours": "Mo-Th 11:30-22:00; Fr,Sa 11:30-22:30; Su 11:30-21:00", "website": "https://localeboulder.com/", "wheelchair": "yes"}}, {"type": "node", "id": 1403541787, "lat": 40.0177112, "lon": -105.2815036, "tags": {"addr:city": "Boulder", "addr:housenumber": "1047", "addr:postcode": "80302", "addr:state": "CO", "addr:street": "Pearl Street", "alt_name": "Tom's Tavern", "amenity": "restaurant", "level": "0", "name": "Salt", "opening_hours": "Sa-Su 10:30-14:30 open \"Brunch\"; We-Fr 11:00-14:30 open \"Lunch\"; Mo-Su 16:30-21:00 open \"Dinner\"", "phone": "+1-303-444-7258", "website": "https://saltboulder.com"}}, {"type": "node", "id": 1403544935, "lat": 40.0358041, "lon": -105.2601905, "tags": {"addr:unit": "5", "amenity": "restaurant", "cuisine": "chinese", "level": "0", "name": "Five Spice", "opening_hours": "Tu-Su 11:00-21:30", "website": "http://www.fivespicecuisine.com/"}}, {"type": "node", "id": 1403547111, "lat": 40.0475161, "lon": -105.280559, "tags": {"addr:housenumber": "3970", "addr:street": "Broadway", "amenity": "restaurant", "cuisine": "chinese", "name": "China Gourmet", "opening_hours": "Su-Fr 11:30-9:00, Sa 4:30-9:00", "phone": "+13034403500", "website": "http://www.chinagourmetmenu.com/"}}, {"type": "node", "id": 1490656754, "lat": 39.9979442, "lon": -105.2332847, "tags": {"addr:unit": "A109", "amenity": "restaurant", "level": "0", "name": "Breakfast Champion", "shop": "bakery"}}, {"type": "node", "id": 1533522955, "lat": 40.0205129, "lon": -105.2511717, "tags": {"amenity": "pub", "internet_access": "wlan", "name": "Twisted Pine Brewing Company", "opening_hours": "Mo-Su 11:00-22:00", "website": "https://twistedpinebrewing.com/"}}, {"type": "node", "id": 1609855744, "lat": 40.0317256, "lon": -105.25942, "tags": {"amenity": "pub", "name": "Outback Saloon"}}, {"type": "node", "id": 1609869630, "lat": 40.0271136, "lon": -105.2589121}, {"type": "node", "id": 1609869634, "lat": 40.0271149, "lon": -105.2587632}, {"type": "node", "id": 1609869650, "lat": 40.0268978, "lon": -105.2587598}, {"type": "node", "id": 1609869700, "lat": 40.0268965, "lon": -105.2589087}, {"type": "node", "id": 1638502235, "lat": 40.0141844, "lon": -105.2294568, "tags": {"addr:city": "Boulder", "addr:housenumber": "5290", "addr:postcode": "80303", "addr:state": "CO", "addr:street": "Arapahoe Avenue", "addr:unit": "B", "amenity": "restaurant", "cuisine": "indian;nepalese", "name": "Sherpa Kitchen", "phone": "+1-303-444-1626", "website": "https://www.facebook.com/SherpasKitchen/"}}, {"type": "node", "id": 1713668653, "lat": 40.0168172, "lon": -105.2808104, "tags": {"addr:housenumber": "1101", "addr:postcode": "80302", "addr:street": "Walnut Street", "amenity": "restaurant", "cuisine": "mexican", "email": "boulder@riograndemexican.com", "name": "Rio Grande", "opening_hours": "Su-Tu 11:00-21:00; We 11:00-22:00; Th-Sa 11:00-23:00", "phone": "+1-303-444-3690", "website": "https://riograndemexican.com/locations/boulder/"}}, {"type": "node", "id": 1844546299, "lat": 40.0192128, "lon": -105.274247, "tags": {"addr:city": "Boulder", "addr:housenumber": "1617", "addr:postcode": "80302", "addr:street": "Pearl Street", "amenity": "restaurant", "brand": "Snooze", "brand:wikidata": "Q111304345", "cuisine": "breakfast", "name": "Snooze", "official_name": "Snooze, an A.M. Eatery", "opening_hours": "Mo-Fr 07:00-15:00; Sa,Su 07:00-16:00", "website": "https://www.snoozeeatery.com/restaurant/colorado/boulder/"}}, {"type": "node", "id": 1844546910, "lat": 40.0191768, "lon": -105.2744323, "tags": {"addr:city": "Boulder", "addr:housenumber": "1611", "addr:postcode": "80302", "addr:street": "Pearl Street", "amenity": "restaurant", "level": "0", "name": "Foolish Craig's Cafe", "opening_hours": "Mo-Sa 08:00-21:30; Su 08:00-21:00", "website": "https://www.foolishcraigs.com/"}}, {"type": "node", "id": 2060843086, "lat": 40.0250449, "lon": -105.251014}, {"type": "node", "id": 2060843087, "lat": 40.0248463, "lon": -105.2512272}, {"type": "node", "id": 2060843088, "lat": 40.0249752, "lon": -105.2509051}, {"type": "node", "id": 2060843089, "lat": 40.0247782, "lon": -105.2511208}, {"type": "node", "id": 2096898838, "lat": 39.9981648, "lon": -105.2330329, "tags": {"addr:unit": "A107", "amenity": "restaurant", "cuisine": "indian", "level": "0", "name": "Mount Everest Cuisine", "opening_hours": "Mo-Sa 11:00-14:30, 17:00-21:00", "website": "https://www.mounteverestcuisine.com/"}}, {"type": "node", "id": 2096898841, "lat": 39.9976955, "lon": -105.2335416, "tags": {"addr:unit": "C110", "amenity": "restaurant", "level": "0", "name": "McDevitt Taco Supply", "website": "https://www.mcdevitttacosupply.com/"}}, {"type": "node", "id": 2096898859, "lat": 39.9978711, "lon": -105.233294, "tags": {"addr:unit": "A110", "amenity": "restaurant", "cuisine": "chinese", "level": "0", "name": "Noodle House", "opening_hours": "Tu 15:00-21:30; We-Su 11:00-21:30", "phone": "+1-303-494-4210", "website": "http://noodlehousekitchen.com/"}}, {"type": "node", "id": 2099199610, "lat": 40.014323, "lon": -105.2501816, "tags": {"amenity": "restaurant", "cuisine": "korean", "name": "A Cup of Peace", "opening_hours": "Mo-Sa 10:00-18:30", "website": "https://www.acupofpeace.com/"}}, {"type": "node", "id": 2099200314, "lat": 40.0149892, "lon": -105.2521158}, {"type": "node", "id": 2099200327, "lat": 40.0148876, "lon": -105.2518457}, {"type": "node", "id": 2099200334, "lat": 40.0151867, "lon": -105.2534245}, {"type": "node", "id": 2099200340, "lat": 40.0153491, "lon": -105.2532459}, {"type": "node", "id": 2099200355, "lat": 40.0148871, "lon": -105.2521154}, {"type": "node", "id": 2099200364, "lat": 40.0153497, "lon": -105.2534221}, {"type": "node", "id": 2099200371, "lat": 40.0149897, "lon": -105.251846}, {"type": "node", "id": 2099200372, "lat": 40.0151858, "lon": -105.2532474}, {"type": "node", "id": 2099200495, "lat": 40.0150971, "lon": -105.2521161}, {"type": "node", "id": 2099200497, "lat": 40.0150976, "lon": -105.2518464}, {"type": "node", "id": 2108425281, "lat": 40.016242, "lon": -105.2588884, "tags": {"amenity": "restaurant", "brand": "IHOP", "brand:wikidata": "Q1185675", "cuisine": "breakfast;pancake", "name": "IHOP", "opening_hours": "24/7", "website": "https://restaurants.ihop.com/en-us/co/boulder/breakfast-1675-28th-st-1836"}}, {"type": "node", "id": 2109040023, "lat": 39.9998739, "lon": -105.2611822, "tags": {"addr:housenumber": "2630", "addr:street": "Baseline Road", "alt_name": "Taj", "amenity": "restaurant", "cuisine": "indian", "level": "1", "name": "The Taj", "opening_hours": "Mo-Fr 11:00-21:30; Sa 11:30-21:30; Su 11:30-21:00", "phone": "+1-303-494-5216", "website": "https://tajindianboulder.com/", "wheelchair": "no"}}, {"type": "node", "id": 2176408033, "lat": 40.0155254, "lon": -105.2772236}, {"type": "node", "id": 2176408035, "lat": 40.0154864, "lon": -105.2772095}, {"type": "node", "id": 2176408037, "lat": 40.0154988, "lon": -105.2771507}, {"type": "node", "id": 2176408038, "lat": 40.0154812, "lon": -105.2771444}, {"type": "node", "id": 2176408040, "lat": 40.0154953, "lon": -105.2770774}, {"type": "node", "id": 2176408042, "lat": 40.0154827, "lon": -105.2770729}, {"type": "node", "id": 2176408044, "lat": 40.0154949, "lon": -105.277015}, {"type": "node", "id": 2176408046, "lat": 40.0154471, "lon": -105.2769978}, {"type": "node", "id": 2176408048, "lat": 40.0154086, "lon": -105.2771803}, {"type": "node", "id": 2176408050, "lat": 40.0153802, "lon": -105.2771701}, {"type": "node", "id": 2176408052, "lat": 40.0153472, "lon": -105.2773265}, {"type": "node", "id": 2177939677, "lat": 40.0045312, "lon": -105.2649977, "tags": {"amenity": "restaurant", "name": "C4C Dining", "opening_hours": "Mo-Fr 07:00-20:00; Sa-Su 10:00-20:00", "operator": "University of Colorado Boulder", "payment:account_cards": "yes", "payment:campus_cash": "yes", "payment:cash": "no", "payment:meal_plan": "yes", "payment:munch_money": "yes", "takeaway": "no"}}, {"type": "node", "id": 2203467802, "lat": 40.007186, "lon": -105.2756801, "tags": {"amenity": "restaurant", "name": "Waffle Brothers"}}, {"type": "node", "id": 2213712820, "lat": 40.0068849, "lon": -105.2712809, "tags": {"amenity": "restaurant", "name": "Alferd Packer Resturant and Grill", "opening_hours": "Mo-Th 07:00 - 19:00; Fr 07:00-18:30", "payment:account_cards": "yes", "payment:cash": "yes", "phone": "+1-303-492-6578"}}, {"type": "node", "id": 2296538924, "lat": 40.0202938, "lon": -105.2184216, "tags": {"addr:city": "Boulder", "addr:housenumber": "1898", "addr:state": "CO", "addr:street": "South Flatiron Court", "amenity": "bar", "brewery": "yes", "name": "Upslope Brewery Tasting Room", "outdoor_seating": "yes", "website": "https://upslopebrewing.com/"}}, {"type": "node", "id": 2305659906, "lat": 40.0150268, "lon": -105.2642734}, {"type": "node", "id": 2305659908, "lat": 40.0150468, "lon": -105.2642425}, {"type": "node", "id": 2305659910, "lat": 40.0150489, "lon": -105.2640038}, {"type": "node", "id": 2305659913, "lat": 40.0147746, "lon": -105.2639978}, {"type": "node", "id": 2305659915, "lat": 40.0147705, "lon": -105.2640856}, {"type": "node", "id": 2305659917, "lat": 40.0147782, "lon": -105.2640869}, {"type": "node", "id": 2305659919, "lat": 40.0147746, "lon": -105.2642318}, {"type": "node", "id": 2305659921, "lat": 40.0149184, "lon": -105.2642345}, {"type": "node", "id": 2305659923, "lat": 40.0149179, "lon": -105.2642713}, {"type": "node", "id": 2305659925, "lat": 40.0150489, "lon": -105.2640863}, {"type": "node", "id": 2305659928, "lat": 40.0150668, "lon": -105.2640869}, {"type": "node", "id": 2305659929, "lat": 40.0150674, "lon": -105.2640487}, {"type": "node", "id": 2305659930, "lat": 40.0150489, "lon": -105.2640474}, {"type": "node", "id": 2310488637, "lat": 40.0157007, "lon": -105.2577591, "tags": {"amenity": "restaurant", "brand": "Noodles & Company", "brand:wikidata": "Q7049673", "cuisine": "pasta", "internet_access": "wlan", "internet_access:fee": "no", "level": "0", "name": "Noodles & Company", "opening_hours": "Mo-Su 10:30-21:00", "website": "https://locations.noodles.com/co/boulder/1600-28th-st.html"}}, {"type": "node", "id": 2310488640, "lat": 40.01575, "lon": -105.2577592, "tags": {"addr:unit": "1212", "amenity": "restaurant", "level": "0", "name": "Modern Market", "opening_hours": "Mo-Su 10:00-21:00", "website": "https://www.modernmarket.com"}}, {"type": "node", "id": 2310491039, "lat": 40.0178874, "lon": -105.2579499}, {"type": "node", "id": 2310491040, "lat": 40.0179057, "lon": -105.2576886}, {"type": "node", "id": 2310491041, "lat": 40.0176253, "lon": -105.2576873}, {"type": "node", "id": 2310491042, "lat": 40.0176252, "lon": -105.2577194}, {"type": "node", "id": 2310491043, "lat": 40.0175652, "lon": -105.2577192}, {"type": "node", "id": 2310491044, "lat": 40.0175645, "lon": -105.2579691}, {"type": "node", "id": 2310491045, "lat": 40.0176884, "lon": -105.2579697}, {"type": "node", "id": 2310491046, "lat": 40.0176883, "lon": -105.2580053}, {"type": "node", "id": 2310491047, "lat": 40.0177544, "lon": -105.2580056}, {"type": "node", "id": 2310491048, "lat": 40.0177545, "lon": -105.257964}, {"type": "node", "id": 2310496203, "lat": 40.0178874, "lon": -105.2579646}, {"type": "node", "id": 2310496204, "lat": 40.017905, "lon": -105.2579499}, {"type": "node", "id": 2310497795, "lat": 40.0188944, "lon": -105.2566892, "tags": {"addr:unit": "1144", "amenity": "restaurant", "level": "0", "name": "Mad Greens", "opening_hours": "Mo-Su 10:30-20:30", "website": "https://www.madgreens.com/"}}, {"type": "node", "id": 2339315535, "lat": 40.0090022, "lon": -105.276119, "tags": {"addr:housenumber": "1355", "addr:street": "Broadway", "addr:unit": "B", "amenity": "restaurant", "cuisine": "ribs", "fixme": "did I place this is the correct place?", "name": "The Rib House", "phone": "+1-303-442-7427"}}, {"type": "node", "id": 2346282318, "lat": 40.0580973, "lon": -105.2817787, "tags": {"addr:city": "Boulder", "addr:housenumber": "1200", "addr:postcode": "80304", "addr:state": "CO", "addr:street": "Yarmouth Avenue", "amenity": "restaurant", "name": "Bacco Trattoria and Mozzarella Bar", "outdoor_seating": "yes", "website": "https://baccoboulder.com/"}}, {"type": "node", "id": 2383772567, "lat": 40.0575678, "lon": -105.2819216, "tags": {"addr:unit": "D-1", "amenity": "restaurant", "cuisine": "mexican", "name": "Bellota", "opening_hours": "We-Su 16:00-21:00; Fr,Sa 16:00-22:00", "outdoor_seating": "yes", "website": "https://www.denverbellota.com/"}}, {"type": "node", "id": 2496684165, "lat": 40.0160798, "lon": -105.2844589}, {"type": "node", "id": 2496684166, "lat": 40.0160983, "lon": -105.2843639}, {"type": "node", "id": 2496684173, "lat": 40.016196, "lon": -105.2844973}, {"type": "node", "id": 2496684175, "lat": 40.0162145, "lon": -105.2844023}, {"type": "node", "id": 2505180558, "lat": 40.0148355, "lon": -105.2743977}, {"type": "node", "id": 2505180560, "lat": 40.0148398, "lon": -105.2742736}, {"type": "node", "id": 2505180570, "lat": 40.0149275, "lon": -105.2744032}, {"type": "node", "id": 2505180572, "lat": 40.0149318, "lon": -105.2742791}, {"type": "node", "id": 2611146751, "lat": 40.0176784, "lon": -105.282566, "tags": {"addr:city": "Boulder", "addr:housenumber": "2014", "addr:postcode": "80302", "addr:street": "10th Street", "amenity": "restaurant", "cuisine": "ramen", "name": "Dragonfly Noodle", "phone": "+1-303-444-2280"}}, {"type": "node", "id": 2686077528, "lat": 40.0200024, "lon": -105.2777674}, {"type": "node", "id": 2686077529, "lat": 40.020034, "lon": -105.2776335}, {"type": "node", "id": 2686077531, "lat": 40.0200889, "lon": -105.2778022}, {"type": "node", "id": 2686077532, "lat": 40.0200531, "lon": -105.2775539}, {"type": "node", "id": 2686077533, "lat": 40.0201396, "lon": -105.2775892}, {"type": "node", "id": 2700650296, "lat": 40.0077908, "lon": -105.2752953, "tags": {"amenity": "restaurant", "cuisine": "thai", "name": "Terra Thai"}}, {"type": "node", "id": 2700650304, "lat": 40.0078114, "lon": -105.2760657, "tags": {"addr:housenumber": "1124", "addr:street": "13th Street", "amenity": "restaurant", "cuisine": "mexican", "name": "Illegal Pete's", "opening_hours": "Mo-Su 11:00-21:00", "website": "https://www.illegalpetes.com/location/illegal-petes-boulder-the-hill/"}}, {"type": "node", "id": 2700653297, "lat": 40.0076521, "lon": -105.2760705, "tags": {"addr:housenumber": "1116", "addr:street": "13th Street", "air_conditioning": "yes", "amenity": "restaurant", "cuisine": "american;indian", "diet:vegan": "yes", "diet:vegetarian": "yes", "name": "Gaia Masala & Burger", "opening_hours": "Mo-Su 11:00-03:00", "payment:credit_cards": "yes", "payment:debit_cards": "yes", "website": "https://www.gaiamasalaboulder.com/"}}, {"type": "node", "id": 2700653301, "lat": 40.0075217, "lon": -105.2764084, "tags": {"addr:city": "Boulder", "addr:housenumber": "1107", "addr:street": "13th Street", "amenity": "restaurant", "cuisine": "sushi", "name": "Scrooge Maki", "website": "https://www.scroogemaki.com/"}}, {"type": "node", "id": 2700655464, "lat": 40.0085746, "lon": -105.2764298, "tags": {"addr:city": "Boulder", "addr:housenumber": "1165", "addr:postcode": "80302", "addr:state": "CO", "addr:street": "13th Street", "amenity": "restaurant", "cuisine": "american", "name": "The Sink", "opening_hours": "11:00-02:00", "toilets:wheelchair": "no", "website": "https://thesink.com/", "wheelchair": "yes"}}, {"type": "node", "id": 2700655465, "lat": 40.0085777, "lon": -105.2767061, "tags": {"addr:city": "Boulder", "addr:housenumber": "1220", "addr:postcode": "80302", "addr:state": "CO", "addr:street": "Pennsylvania Avenue", "amenity": "restaurant", "cuisine": "sushi", "name": "Sushi Hana", "opening_hours": "Mo-We 11:00-22:00; Th-Sa 11:00-23:00; Su 16:00-22:00", "website": "https://www.bouldersushihana.com/"}}, {"type": "node", "id": 2700655467, "lat": 40.0081843, "lon": -105.2764017, "tags": {"addr:city": "Boulder", "addr:housenumber": "1143", "addr:postcode": "80302", "addr:street": "13th Street", "alt_name": "Span-ish", "amenity": "restaurant", "name": "Ado's Kitchen & Bar", "opening_hours": "Mo-Sa 09:00-21:00, Su 09:00-15:00", "website": "http://span-ishatthehill.com"}}, {"type": "node", "id": 2700655468, "lat": 40.0082633, "lon": -105.2763976, "tags": {"addr:city": "Boulder", "addr:housenumber": "1149", "addr:postcode": "80302", "addr:state": "CO", "addr:street": "13th Street", "amenity": "restaurant", "cuisine": "tacos", "name": "Taco Junky", "opening_hours": "Mo-We 11:00-24:00, Th-Fr 11:00-02:00, Sa 09:00-02:00, Su 09:00-24:00", "website": "http://tacojunkytequilabar.com/"}}, {"type": "node", "id": 2700664444, "lat": 40.0090584, "lon": -105.2764486, "tags": {"addr:city": "Boulder", "addr:housenumber": "1215", "addr:street": "13th Street", "amenity": "restaurant", "cuisine": "sandwich", "name": "Half Fast Subs", "opening_hours": "Mo-We 10:30-23:00; Th-Fr 10:30-00:00; Sa 11:00-00:00; Su 11:00-22:00"}}, {"type": "node", "id": 2703748816, "lat": 40.0162588, "lon": -105.252603, "tags": {"addr:city": "Boulder", "addr:housenumber": "1678", "addr:postcode": "80301", "addr:street": "30th Street", "amenity": "restaurant", "check_date:opening_hours": "2025-02-22", "cuisine": "chinese", "level": "0", "name": "Haoway Chinese Cafe", "opening_hours": "Mo-Sa 11:00-20:45", "phone": "+1-303-442-5115", "website": "http://haowaychinesecafe.com/"}}, {"type": "node", "id": 2705159755, "lat": 40.0187825, "lon": -105.276309, "tags": {"addr:city": "Boulder", "addr:housenumber": "1447", "addr:postcode": "80302", "addr:street": "Pearl Street Mall", "amenity": "restaurant", "cuisine": "burrito;tacos", "name": "Illegal Pete's Co", "opening_hours": "Su 09:00-00:00; Mo-We 07:00-00:00; Th, Fr 07:00-02:30; Sa 09:00-02:30", "phone": "+1-303-440-3955", "website": "http://illegalpetes.com"}}, {"type": "node", "id": 2705160943, "lat": 40.0181259, "lon": -105.278193, "tags": {"addr:housenumber": "1314", "addr:street": "Pearl Street", "amenity": "restaurant", "cuisine": "mediterranean", "name": "Falafel King", "website": "https://falafelkingfoods.com/"}}, {"type": "node", "id": 2705161035, "lat": 40.0182115, "lon": -105.277749, "tags": {"amenity": "restaurant", "cuisine": "pizza", "name": "Pizza Colore", "opening_hours": "Su-We 11:00-22:00; Th-Sa 11:00-02:30", "phone": "+1 303 442 5790", "website": "http://www.pizzacolore.com/"}}, {"type": "node", "id": 2705161036, "lat": 40.018449, "lon": -105.277512, "tags": {"amenity": "restaurant", "cuisine": "boardwalk", "name": "Ruthie's Boardwalk Social", "website": "https://www.ruthiesboulder.com/"}}, {"type": "node", "id": 2705168538, "lat": 40.0164985, "lon": -105.278481, "tags": {"amenity": "restaurant", "cuisine": "deli", "name": "Boulder Creek Market"}}, {"type": "node", "id": 2705168539, "lat": 40.0164245, "lon": -105.2784154, "tags": {"amenity": "bar", "name": "Johnny\u2019s Martini Bar"}}, {"type": "node", "id": 2710192564, "lat": 40.0181428, "lon": -105.2770719, "tags": {"addr:city": "Boulder", "addr:housenumber": "1400", "addr:postcode": "80302", "addr:street": "Pearl Street", "amenity": "restaurant", "contact:facebook": "oakatfourteenth", "cuisine": "regional", "name": "Oak at Fourteenth", "phone": "+1-303-444-3622", "website": "https://www.oakatfourteenth.com/"}}, {"type": "node", "id": 2780521774, "lat": 40.0144096, "lon": -105.2570702}, {"type": "node", "id": 2780521776, "lat": 40.0144096, "lon": -105.2567259}, {"type": "node", "id": 2780521777, "lat": 40.0141915, "lon": -105.2567259}, {"type": "node", "id": 2780521778, "lat": 40.0141915, "lon": -105.2570702}, {"type": "node", "id": 2954460606, "lat": 40.0702073, "lon": -105.200538, "tags": {"addr:city": "Boulder", "addr:postcode": "80301", "addr:state": "CO", "amenity": "restaurant", "cuisine": "asian", "name": "Yurihana", "smoking": "no"}}, {"type": "node", "id": 2954465297, "lat": 40.0698893, "lon": -105.2037407, "tags": {"amenity": "restaurant", "cuisine": "regional", "name": "food trucks"}}, {"type": "node", "id": 3010970963, "lat": 40.0739238, "lon": -105.2024648, "tags": {"addr:unit": "A", "amenity": "pub", "craft": "brewery", "microbrewery": "yes", "name": "Finkel and Garf", "opening_hours": "Mo-Th 15:00-21:00; Fr 15:00-22:00; Sa 14:00-22:00; Su 15:00-19:00", "website": "https://www.finkelandgarf.com/"}}, {"type": "node", "id": 3145956046, "lat": 40.0275198, "lon": -105.257489, "tags": {"addr:housenumber": "2716", "addr:street": "28th Street", "amenity": "restaurant", "cuisine": "breakfast", "name": "Dot's Diner", "opening_hours": "Mo-Fr 07:00-14:00, Sa,Su 08:00-14:00", "website": "https://www.dotsdinerboulder.com/"}}, {"type": "node", "id": 3151940403, "lat": 40.0156102, "lon": -105.2633893, "tags": {"addr:housenumber": "1605", "addr:street": "Folsom Street", "alt_name": "The Village Cafe", "amenity": "restaurant", "name": "Village Cafe Shop", "opening_hours": "Mo-Su 07:00-14:00", "website": "https://www.villagecoffeeshopboulder.com/"}}, {"type": "node", "id": 3272048742, "lat": 40.0150971, "lon": -105.2274694}, {"type": "node", "id": 3272048743, "lat": 40.015053, "lon": -105.2274896}, {"type": "node", "id": 3272048744, "lat": 40.0149667, "lon": -105.2274849}, {"type": "node", "id": 3272048745, "lat": 40.0149682, "lon": -105.2274057}, {"type": "node", "id": 3272048746, "lat": 40.0149287, "lon": -105.2273897}, {"type": "node", "id": 3272048747, "lat": 40.0149287, "lon": -105.2270711}, {"type": "node", "id": 3272048748, "lat": 40.0150966, "lon": -105.2270738}, {"type": "node", "id": 3272048749, "lat": 40.0150966, "lon": -105.2272394}, {"type": "node", "id": 3272048750, "lat": 40.0151269, "lon": -105.2272421}, {"type": "node", "id": 3272048751, "lat": 40.0151131, "lon": -105.2273286}, {"type": "node", "id": 3272048752, "lat": 40.0150982, "lon": -105.227328}, {"type": "node", "id": 3272108572, "lat": 40.0193004, "lon": -105.2724538, "tags": {"addr:city": "Boulder", "addr:housenumber": "1738", "addr:postcode": "80302", "addr:street": "Pearl Street", "amenity": "restaurant", "cuisine": "italian", "name": "Frasca Food and Wine", "opening_hours": "Mo-Th 17:30-21:30; Fr 17:30-22:30; Sa 17:00-22:30", "website": "https://www.frascafoodandwine.com/", "wheelchair": "yes"}}, {"type": "node", "id": 3272125390, "lat": 40.0179234, "lon": -105.2805434, "tags": {"addr:city": "Boulder", "addr:housenumber": "1125", "addr:postcode": "80302", "addr:street": "Pearl Street", "amenity": "restaurant", "name": "West Flanders Brewing Company"}}, {"type": "node", "id": 3274203533, "lat": 40.0153545, "lon": -105.2484448, "tags": {"addr:city": "Boulder", "addr:housenumber": "3601", "addr:postcode": "80303", "addr:street": "Arapahoe Avenue", "amenity": "restaurant", "name": "Basta", "phone": "+1-303-997-8775", "website": "https://www.bastaboulder.com/"}}, {"type": "node", "id": 3447712483, "lat": 40.0171297, "lon": -105.2602036, "tags": {"amenity": "restaurant", "cuisine": "breakfast", "name": "The Buff"}}, {"type": "node", "id": 3704103660, "lat": 40.0248781, "lon": -105.2510111}, {"type": "node", "id": 3704103664, "lat": 40.0248481, "lon": -105.2510044}, {"type": "node", "id": 3704103694, "lat": 40.0248253, "lon": -105.2510311}, {"type": "node", "id": 3704103714, "lat": 40.0248223, "lon": -105.2510727}, {"type": "node", "id": 3712919110, "lat": 39.9982865, "lon": -105.232856, "tags": {"addr:unit": "A104", "amenity": "restaurant", "cuisine": "italian", "level": "0", "name": "Gondolier Italian Eatery", "opening_hours": "Tu-Th 15:00-21:00; Fr-Su 12:00-21:00", "phone": "+1-303-443-5015", "smoking": "no", "takeaway": "yes", "website": "https://www.gondolierboulder.com/"}}, {"type": "node", "id": 3729891891, "lat": 40.0214286, "lon": -105.2473843, "tags": {"addr:city": "Boulder", "addr:housenumber": "3550", "addr:postcode": "80301", "addr:state": "CO", "addr:street": "Frontier Avenue", "addr:unit": "A", "amenity": "pub", "craft": "brewery", "microbrewery": "yes", "name": "Sanitas Brewing Company", "opening_hours": "Mo-Sa 12:00-22:00; Su 12:00-21:00", "opening_hours:happy_hour": "Mo-Fr 15:00-17:00", "outdoor_seating": "yes", "phone": "+1-303-442-4130", "website": "https://www.sanitasbrewing.com/"}}, {"type": "node", "id": 3849412935, "lat": 40.0168557, "lon": -105.2791089, "tags": {"amenity": "restaurant", "cuisine": "indian", "name": "Jaipur Indian Restaurant"}}, {"type": "node", "id": 3877484479, "lat": 40.0213325, "lon": -105.2577074}, {"type": "node", "id": 3877484480, "lat": 40.0213349, "lon": -105.257466}, {"type": "node", "id": 3877484481, "lat": 40.021091, "lon": -105.2574618}, {"type": "node", "id": 3877484482, "lat": 40.0210886, "lon": -105.2577032}, {"type": "node", "id": 3911325342, "lat": 40.0152476, "lon": -105.2635049, "tags": {"addr:housenumber": "1575", "addr:street": "Folsom Street", "addr:unit": "Suite 201", "amenity": "restaurant", "contact:facebook": "https://www.facebook.com/TasukiSushiBistro/", "cuisine": "japanese", "name": "Tasuki", "opening_hours": "Tu-Su 17:00-22:00"}}, {"type": "node", "id": 3942622414, "lat": 40.0073222, "lon": -105.2943493}, {"type": "node", "id": 4015821553, "lat": 40.0165376, "lon": -105.2577794, "tags": {"addr:unit": "1228", "amenity": "restaurant", "cuisine": "japanese", "level": "0", "name": "Rakkan Ramen", "opening_hours": "11:00-22:00", "website": "https://rakkanramen.com/locations/boulder/"}}, {"type": "node", "id": 4081706928, "lat": 40.0138525, "lon": -105.227549, "tags": {"addr:city": "Boulder", "addr:housenumber": "5360", "addr:state": "CO", "addr:street": "Arapahoe Avenue", "amenity": "restaurant", "cuisine": "tacos", "name": "Pica's", "opening_hours": "Mo-Su 11:00-21:30", "phone": "+1-303-444-2391", "website": "https://picascolorado.com/boulder"}}, {"type": "node", "id": 4123973444, "lat": 40.0176743, "lon": -105.2804003, "tags": {"addr:city": "Boulder", "addr:housenumber": "1136", "addr:postcode": "80302", "addr:state": "CO", "addr:street": "Pearl Street Mall", "amenity": "restaurant", "cuisine": "asian", "name": "Japango", "phone": "+1-303-938-0330", "website": "https://boulderjapango.com/"}}, {"type": "node", "id": 4346525682, "lat": 40.0296411, "lon": -105.2595897}, {"type": "node", "id": 4346525683, "lat": 40.0293695, "lon": -105.2595885}, {"type": "node", "id": 4346525684, "lat": 40.0293703, "lon": -105.2592691}, {"type": "node", "id": 4346525685, "lat": 40.0298403, "lon": -105.2592712}, {"type": "node", "id": 4346525686, "lat": 40.0298401, "lon": -105.2593604}, {"type": "node", "id": 4346525687, "lat": 40.02969, "lon": -105.2593597}, {"type": "node", "id": 4346525688, "lat": 40.0296898, "lon": -105.2594184}, {"type": "node", "id": 4346526389, "lat": 40.0296415, "lon": -105.2594181}, {"type": "node", "id": 4376723992, "lat": 40.0176723, "lon": -105.2817018, "tags": {"addr:city": "Boulder", "addr:housenumber": "1039", "addr:postcode": "80302", "addr:state": "CO", "addr:street": "Pearl Street", "amenity": "restaurant", "cuisine": "bistro", "level": "0", "name": "The Kitchen Cafe", "website": "https://www.thekitchenbistros.com/location/boulder-colorado/"}}, {"type": "node", "id": 4394255235, "lat": 39.9839528, "lon": -105.250612, "tags": {"addr:city": "Boulder", "addr:housenumber": "607", "addr:postcode": "80305", "addr:street": "South Broadway", "amenity": "restaurant", "cuisine": "chinese", "name": "Tsing Tao", "opening_hours": "Mo-Fr 11:00-21:30, Sa-Su 12:00-21:30", "payment:bitcoincash": "yes", "website": "http://www.tsingtaoasiankitchen.com"}}, {"type": "node", "id": 4407597113, "lat": 40.0158508, "lon": -105.2577556, "tags": {"addr:unit": "1216", "amenity": "restaurant", "cuisine": "japanese", "level": "0", "name": "Motomaki", "opening_hours": "Mo-Su 11:00-22:00", "website": "https://www.motomaki.com/location/boulder"}}, {"type": "node", "id": 4407603672, "lat": 40.0170863, "lon": -105.2832844, "tags": {"addr:city": "Boulder", "addr:housenumber": "926", "addr:postcode": "80302", "addr:street": "Pearl Street", "amenity": "pub", "check_date:opening_hours": "2024-05-27", "name": "The West End Tavern", "opening_hours": "Su-Th 11:00-21:00; Fr-Sa 11:00-22:00", "opening_hours:happy_hour": "Mo-Fr 15:00-18:00", "phone": "+1 303 444 3535", "website": "https://www.thewestendtavern.com/"}}, {"type": "node", "id": 4415899392, "lat": 40.019428, "lon": -105.2793221, "tags": {"amenity": "bar", "level": "-1", "name": "License No. 1", "name:en": "License No. 1", "opening_hours": "Mo-Su 17:00-02:00", "website": "https://www.boulderado.com/dining/license-no-1/"}}, {"type": "node", "id": 4460606664, "lat": 40.0279471, "lon": -105.2592319, "tags": {"addr:city": "Boulder", "addr:housenumber": "2845", "addr:postcode": "80304", "addr:state": "CO", "addr:street": "28th Street", "amenity": "restaurant", "cuisine": "mexican", "description": "Mexico Bistro & Tequila House", "name": "Agave", "source": "esri_USDOT_ColoradoOITGIS", "website": "http://www.agavecolorado.com/"}}, {"type": "node", "id": 4493097699, "lat": 40.057368, "lon": -105.28193, "tags": {"addr:unit": "C-3A", "amenity": "restaurant", "cuisine": "mexican", "name": "Tierra y Fuego", "website": "https://www.tierrayfuegotaqueria.com/"}}, {"type": "node", "id": 4493163808, "lat": 39.9976382, "lon": -105.2517451, "tags": {"amenity": "restaurant", "name": "Village Grab-N-Go"}}, {"type": "node", "id": 4497730175, "lat": 40.0243403, "lon": -105.2823905}, {"type": "node", "id": 4501749521, "lat": 40.0169655, "lon": -105.257185, "tags": {"addr:unit": "1248", "amenity": "restaurant", "brand": "CAVA", "brand:wikidata": "Q85751038", "cuisine": "mediterranean", "level": "0", "name": "CAVA", "opening_hours": "Mo-Su 10:45-22:00", "website": "https://cava.com/locations/boulder-co"}}, {"type": "node", "id": 4509840720, "lat": 40.0151735, "lon": -105.2626279, "tags": {"addr:city": "Boulder", "addr:housenumber": "2525", "addr:state": "CO", "addr:street": "Arapahoe Avenue", "addr:unit": "C1", "amenity": "restaurant", "level": "0", "name": "Le French Cafe", "opening_hours": "Tu-Su 09:00-15:30", "website": "https://www.lefrenchcafeboulder.com/"}}, {"type": "node", "id": 4509840721, "lat": 40.0142968, "lon": -105.2625424, "tags": {"addr:city": "Boulder", "addr:housenumber": "2400", "addr:postcode": "80302", "addr:state": "CO", "addr:street": "Arapahoe Avenue", "amenity": "restaurant", "cuisine": "breakfast", "name": "Doug's Day Diner", "opening_hours": "Mo-Su 07:00-14:30", "source": "esri_USDOT_ColoradoOITGIS", "takeaway": "yes", "website": "https://www.dougsdiner.com/"}}, {"type": "node", "id": 4550231778, "lat": 40.0279674, "lon": -105.259016, "tags": {"addr:city": "Boulder", "addr:housenumber": "2835", "addr:street": "28th Street", "amenity": "restaurant", "cuisine": "chinese", "name": "Yummy Duo", "opening_hours": "Tu-Fr 11:00-21:00; Sa-Su 11:30-21:00", "phone": "+1-303-449-7950", "website": "https://www.yummyduoasianbistro.com"}}, {"type": "node", "id": 4550238739, "lat": 40.0280594, "lon": -105.259186, "tags": {"addr:city": "Boulder", "addr:housenumber": "2855", "addr:postcode": "80304", "addr:state": "CO", "addr:street": "28th Street", "amenity": "restaurant", "cuisine": "vietnamese", "name": "Boulder Pho", "opening_hours": "Mo-Su 11:00-21:00", "phone": "+1-303-442-0391", "source": "esri_USDOT_ColoradoOITGIS"}}, {"type": "node", "id": 4571073709, "lat": 40.0072986, "lon": -105.2943203}, {"type": "node", "id": 4571073710, "lat": 40.0074034, "lon": -105.2944333}, {"type": "node", "id": 4571073711, "lat": 40.007353, "lon": -105.2946763}, {"type": "node", "id": 4571073712, "lat": 40.0073531, "lon": -105.2946983}, {"type": "node", "id": 4571073713, "lat": 40.0072933, "lon": -105.2947413}, {"type": "node", "id": 4571073714, "lat": 40.0072602, "lon": -105.2947413}, {"type": "node", "id": 4571073715, "lat": 40.0072593, "lon": -105.2943213}, {"type": "node", "id": 4571073716, "lat": 40.0073549, "lon": -105.2943213}, {"type": "node", "id": 4571073717, "lat": 40.0073691, "lon": -105.2944843}, {"type": "node", "id": 4571073718, "lat": 40.0074366, "lon": -105.2944843}, {"type": "node", "id": 4571073719, "lat": 40.007437, "lon": -105.2946763}, {"type": "node", "id": 4573880400, "lat": 40.0155528, "lon": -105.2593314, "tags": {"addr:housenumber": "1641", "addr:street": "28th Street", "amenity": "bar", "name": "The Root Kava Co.", "opening_hours": "Mo-Su 00:00-01:00,13:00-24:00", "website": "https://www.therootkavabar.com/"}}, {"type": "node", "id": 4573983990, "lat": 40.0154588, "lon": -105.259343, "tags": {"addr:housenumber": "1635", "addr:street": "28th Street", "amenity": "restaurant", "cuisine": "chinese", "name": "Golden Sun", "opening_hours": "Mo-Su 11:30-22:45", "phone": "+1-303-449-0783", "website": "https://www.bouldergoldensun.com"}}, {"type": "node", "id": 4613107617, "lat": 40.0130208, "lon": -105.2781433}, {"type": "node", "id": 4613107618, "lat": 40.0130641, "lon": -105.2779522}, {"type": "node", "id": 4613107619, "lat": 40.0131242, "lon": -105.2779754}, {"type": "node", "id": 4613107620, "lat": 40.0131178, "lon": -105.2780035}, {"type": "node", "id": 4613107621, "lat": 40.0131549, "lon": -105.2780178}, {"type": "node", "id": 4613107622, "lat": 40.013118, "lon": -105.2781808}, {"type": "node", "id": 4624533203, "lat": 40.0195644, "lon": -105.2725179, "tags": {"addr:city": "Boulder", "addr:housenumber": "1739", "addr:postcode": "80302", "addr:street": "Pearl Street", "amenity": "restaurant", "brand": "L'Atelier", "cuisine": "french", "name": "L'Atelier", "website": "http://www.latelierboulder.com/"}}, {"type": "node", "id": 4636870176, "lat": 40.0190136, "lon": -105.275215, "tags": {"addr:city": "Boulder", "addr:housenumber": "1535", "addr:postcode": "80302", "addr:state": "CO", "addr:street": "Pearl Street", "amenity": "pub", "craft": "brewery", "level": "0", "name": "Mountain Sun Pub and Brewery", "opening_hours": "Mo-Su 11:00-01:00", "phone": "+1-303-546-0886", "smoking": "no", "website": "https://www.mountainsunpub.com/"}}, {"type": "node", "id": 4675691587, "lat": 40.0259296, "lon": -105.281367, "tags": {"addr:city": "Boulder", "addr:housenumber": "1245", "addr:postcode": "80304", "addr:state": "CO", "addr:street": "Alpine Avenue", "amenity": "restaurant", "brand": "Noodles & Company", "brand:wikidata": "Q7049673", "cuisine": "pasta", "name": "Noodles & Company", "opening_hours": "11:00-21:00", "phone": "+1-303-440-4340", "source": "Bing", "website": "https://locations.noodles.com/co/boulder/1245-alpine.html"}}, {"type": "node", "id": 4681169636, "lat": 40.0181114, "lon": -105.278297, "tags": {"addr:housenumber": "1308", "addr:street": "Pearl Street", "amenity": "restaurant", "cuisine": "italian", "name": "Sforno Trattoria Romana", "opening_hours": "Mo-Su 11:00-21:00; Fr,Sa 11:00-22:00", "website": "https://sfornoboulder.com/"}}, {"type": "node", "id": 4681169654, "lat": 40.0176771, "lon": -105.2803198, "tags": {"amenity": "pub", "level": "-1", "name": "Sundown Saloon"}}, {"type": "node", "id": 4780169622, "lat": 40.034145, "lon": -105.257606, "tags": {"addr:housenumber": "3280", "addr:postcode": "80301", "addr:street": "28th Street", "amenity": "restaurant", "name": "My Ramen & Izakaya", "name:en": "My Ramen & Izakaya", "opening_hours": "Mo-Fr 11:00-15:00,17:00-21:00; Sa,Su 17:00-21:00", "phone": "+1 303-545-2222", "website": "https://www.myramenco.net/"}}, {"type": "node", "id": 4796716132, "lat": 40.0476012, "lon": -105.280677, "tags": {"addr:city": "Boulder", "addr:housenumber": "3980", "addr:postcode": "80304", "addr:state": "CO", "addr:street": "Broadway", "addr:unit": "107", "amenity": "restaurant", "check_date:opening_hours": "2025-02-11", "cuisine": "american;breakfast;brunch", "name": "Lucky's Bakehouse Cafe", "opening_hours": "Mo-Su 07:00-14:00", "phone": "+1-303-444-5007", "website": "https://www.luckysmarket.com/cafe"}}, {"type": "node", "id": 4893044823, "lat": 40.0704157, "lon": -105.200519, "tags": {"addr:city": "Boulder", "addr:housenumber": "6545", "addr:postcode": "80301", "addr:state": "CO", "addr:street": "Gunpark Drive", "amenity": "restaurant", "cuisine": "mexican", "name": "Sancho's Authentic Mexican Restaurant", "opening_hours": "Mo-Sa 10:00-21:00", "phone": "+1-303-955-4772", "website": "https://sanchosmexican.com/"}}, {"type": "node", "id": 5067851108, "lat": 40.0173813, "lon": -105.2833486, "tags": {"addr:city": "Boulder", "addr:housenumber": "921", "addr:postcode": "80302", "addr:state": "CO", "addr:street": "Pearl Street", "amenity": "restaurant", "level": "0", "name": "C Burger", "opening_hours": "Mo-Su 11:00-21:00; Th-Sa 11:00-22:00", "website": "https://www.cburgerco.com/"}}, {"type": "node", "id": 5067851110, "lat": 40.0172858, "lon": -105.2835491, "tags": {"addr:city": "Boulder", "addr:housenumber": "901", "addr:postcode": "80302", "addr:state": "CO", "addr:street": "Pearl Street", "amenity": "restaurant", "cuisine": "mexican", "name": "My Neighbor Felix", "phone": "+1-303-376-9552", "website": "https://myneighborfelix.com/"}}, {"type": "node", "id": 5068211156, "lat": 40.0160961, "lon": -105.2826002, "tags": {"addr:city": "Boulder", "addr:housenumber": "900", "addr:postcode": "80302", "addr:state": "CO", "addr:street": "Walnut Street", "amenity": "restaurant", "cuisine": "international", "name": "Jill's Restaurant + Bistro", "opening_hours": "Mo-Su 06:00-22:00", "operator": "St. Julien", "phone": "+1-720-406-9696", "website": "https://stjulien.com/eat-drink/jill's-restaurant-and-bistro/"}}, {"type": "node", "id": 5068211159, "lat": 40.0159283, "lon": -105.2825435, "tags": {"addr:city": "Boulder", "addr:housenumber": "900", "addr:postcode": "80302", "addr:state": "CO", "addr:street": "Walnut Street", "amenity": "bar", "name": "T-Zero Lounge", "opening_hours": "Mo-Su 1500-close", "opening_hours:happy_hour": "Mo-Su 1600-1800", "phone": "+1-720-315-3482", "website": "https://www.stjulien.com/eat-drink/t-zero"}}, {"type": "node", "id": 5078273509, "lat": 40.0188388, "lon": -105.2791084, "tags": {"amenity": "restaurant", "name": "The Post Brewing Co.", "website": "https://www.postbrewing.com/boulder/"}}, {"type": "node", "id": 5078273510, "lat": 40.0187135, "lon": -105.2790655, "tags": {"amenity": "restaurant", "name": "Bohemian Biergarten", "opening_hours": "Mo-Su 00:00-01:00,11:00-24:00", "website": "https://www.bohemianbiergarten.com/"}}, {"type": "node", "id": 5078274238, "lat": 40.0172284, "lon": -105.2825314, "tags": {"addr:city": "Boulder", "addr:housenumber": "950", "addr:postcode": "80302", "addr:street": "Pearl Street", "amenity": "restaurant", "cuisine": "mexican", "name": "Centro", "website": "https://www.centromexican.com/"}}, {"type": "node", "id": 5078274241, "lat": 40.0175539, "lon": -105.2823311, "tags": {"addr:city": "Boulder", "addr:housenumber": "1005", "addr:postcode": "80302", "addr:street": "Pearl Street", "amenity": "pub", "level": "-1", "name": "Press Play", "opening_hours": "Mo-Fr 00:00-02:00,16:00-24:00; Sa,Su 00:00-02:00,12:00-24:00", "website": "http://www.pressplaybar.com/"}}, {"type": "node", "id": 5078274242, "lat": 40.0171298, "lon": -105.2822967, "tags": {"amenity": "restaurant", "brand": "Bartaco", "brand:wikidata": "Q112871922", "cuisine": "tacos", "name": "Bartaco", "name:en": "Bartaco", "phone": "+1-719-249-8226", "website": "https://bartaco.com/location/boulder/"}}, {"type": "node", "id": 5087585870, "lat": 39.9985094, "lon": -105.2804604}, {"type": "node", "id": 5179214240, "lat": 40.013297, "lon": -105.2781662, "tags": {"addr:city": "Boulder", "addr:housenumber": "1622B", "addr:postcode": "80302", "addr:street": "Broadway", "amenity": "restaurant", "cuisine": "pizza"}}, {"type": "node", "id": 5181905297, "lat": 40.0170532, "lon": -105.259274, "tags": {"addr:housenumber": "2720", "addr:street": "Canyon Boulevard", "amenity": "restaurant", "cuisine": "thai", "level": "0", "name": "Aloy Thai Cuisine", "opening_hours": "Mo-Su 11:00-21:30", "website": "https://www.aloythai.com/"}}, {"type": "node", "id": 5184327775, "lat": 40.016189, "lon": -105.2602895, "tags": {"amenity": "bar", "name": "Marriott"}}, {"type": "node", "id": 5240025341, "lat": 40.0169304, "lon": -105.2800646, "tags": {"addr:city": "Boulder", "addr:housenumber": "1175", "addr:postcode": "80302", "addr:state": "CO", "addr:street": "Walnut Street", "amenity": "restaurant", "cuisine": "mexican", "name": "T/ACO", "website": "https://tacocolorado.com/"}}, {"type": "node", "id": 5249473120, "lat": 40.0344925, "lon": -105.2540959, "tags": {"addr:city": "Boulder", "addr:housenumber": "3295", "addr:postcode": "80301", "addr:state": "CO", "addr:street": "30th Street", "amenity": "restaurant", "name": "Cork", "outdoor_seating": "no", "source": "esri_USDOT_ColoradoOITGIS"}}, {"type": "node", "id": 5597369561, "lat": 40.0191829, "lon": -105.272962, "tags": {"addr:city": "Boulder", "addr:housenumber": "1710", "addr:postcode": "80302", "addr:street": "Pearl Street", "amenity": "restaurant", "diet:vegan": "yes", "diet:vegetarian": "only", "name": "Leaf Vegetarian Restaurant", "phone": "+1-303-442-1485", "website": "https://www.leafvegetarianrestaurant.com/"}}, {"type": "node", "id": 5629613127, "lat": 40.0702367, "lon": -105.201116, "tags": {"addr:city": "Boulder", "addr:housenumber": "6525", "addr:postcode": "80301", "addr:state": "CO", "addr:street": "Gunpark Drive", "addr:unit": "380", "amenity": "bar", "name": "Rusty Melon", "source": "esri_USDOT_ColoradoOITGIS"}}, {"type": "node", "id": 5629613129, "lat": 40.070385, "lon": -105.201581, "tags": {"addr:city": "Boulder", "addr:postcode": "80301", "addr:state": "CO", "amenity": "restaurant", "cuisine": "american", "name": "Cafe Blue"}}, {"type": "node", "id": 5629721521, "lat": 40.0060556, "lon": -105.2114023, "tags": {"amenity": "restaurant", "name": "The Garden Gate Cafe", "name:en": "The Garden Gate Cafe"}}, {"type": "node", "id": 5893839007, "lat": 40.0298401, "lon": -105.2593477}, {"type": "node", "id": 6009128587, "lat": 40.0249267, "lon": -105.2511394}, {"type": "node", "id": 6009128588, "lat": 40.0249714, "lon": -105.2510942}, {"type": "node", "id": 6009128589, "lat": 40.0249656, "lon": -105.2512002}, {"type": "node", "id": 6009128590, "lat": 40.0250089, "lon": -105.2511529}, {"type": "node", "id": 6171433488, "lat": 40.0191456, "lon": -105.279855, "tags": {"addr:city": "Boulder", "addr:housenumber": "1221", "addr:postcode": "80302", "addr:state": "CO", "addr:street": "Spruce Street", "amenity": "restaurant", "cuisine": "japanese", "delivery": "no", "name": "Izakaya Amu", "outdoor_seating": "no", "takeaway": "no"}}, {"type": "node", "id": 6290479695, "lat": 40.0352143, "lon": -105.2544925, "tags": {"addr:housenumber": "3303", "addr:street": "30th Street", "amenity": "restaurant", "level": "0", "name": "Blooming Beets", "opening_hours": "Tu-Sa 11:00-14:00,17:00-20:00; Su 10:00-14:00,17:00-20:00", "website": "https://www.bloomingbeets.com"}}, {"type": "node", "id": 6302964033, "lat": 39.9986658, "lon": -105.2355603, "tags": {"addr:city": "Boulder", "addr:housenumber": "4800", "addr:postcode": "80303", "addr:state": "CO", "addr:street": "Baseline Road", "addr:unit": "E105", "amenity": "restaurant", "cuisine": "mexican", "level": "0", "name": "Coma Mexican Grill", "website": "https://www.comamexgrill.com/"}}, {"type": "node", "id": 6392735690, "lat": 40.0555002, "lon": -105.2826597, "tags": {"amenity": "restaurant", "check_date:opening_hours": "2022-11-06", "cuisine": "mexican", "name": "La Choza", "opening_hours": "Mo-Sa 08:00-21:00; Su 10:00-17:00", "opening_hours:url": "https://lachozaboulder.com/", "source:opening_hours": "website", "website": "https://lachozaboulder.com/"}}, {"type": "node", "id": 6397531236, "lat": 40.0354402, "lon": -105.259885, "tags": {"amenity": "restaurant", "cuisine": "italian", "name": "Dangelo's Deli", "opening_hours": "Mo-Fr 09:00-20:00; Sa 09:00-18:00", "website": "http://dangelosdeli.com/"}}, {"type": "node", "id": 6397687783, "lat": 40.0301663, "lon": -105.2579555, "tags": {"addr:housenumber": "3054", "addr:street": "28th Street", "amenity": "restaurant", "cuisine": "lebanese", "name": "Ali Baba Grill", "opening_hours": "Mo-Su 11:00-21:00", "takeaway": "yes", "website": "https://www.alibabagrill.com/?location=6"}}, {"type": "node", "id": 6397687985, "lat": 40.0300549, "lon": -105.2579545, "tags": {"addr:housenumber": "3050", "addr:street": "28th Street", "amenity": "restaurant", "cuisine": "indian", "name": "Curry 'N' Kebob", "opening_hours": "Mo-Su 11:00-14:30,17:00-21:30", "outdoor_seating": "yes", "website": "http://currynkebob.com/"}}, {"type": "node", "id": 6403355771, "lat": 40.0168699, "lon": -105.261786, "tags": {"addr:unit": "M-1", "amenity": "restaurant", "cuisine": "mexican", "name": "Efrain's of Boulder", "outdoor_seating": "yes", "phone": "+1-303-440-4045", "website": "https://www.efrainsofboulder.com/"}}, {"type": "node", "id": 6419899649, "lat": 40.018353, "lon": -105.2799922, "tags": {"amenity": "restaurant", "cuisine": "asian", "level": "0", "name": "Fuji Cafe", "opening_hours": "Mo-Fr 11:00-20:00; Sa,Su 12:00-20:00", "website": "http://fujicafebar.com/"}}, {"type": "node", "id": 6432090212, "lat": 40.0259292, "lon": -105.2812294, "tags": {"addr:housenumber": "1265", "addr:street": "Alpine Avenue", "amenity": "restaurant", "cuisine": "mexican", "name": "Santo", "website": "https://www.santoboulder.com/"}}, {"type": "node", "id": 6467408775, "lat": 40.0271518, "lon": -105.2571572, "tags": {"amenity": "restaurant", "name": "Las Tres Reynas"}}, {"type": "node", "id": 6467409299, "lat": 40.0271528, "lon": -105.2572449, "tags": {"amenity": "restaurant", "name": "Fresh Thymes Marketplace", "opening_hours": "Mo-Fr 10:00-18:00; Sa 10:00-16:00", "shop": "deli", "website": "https://freshthymes.com/"}}, {"type": "node", "id": 6467409309, "lat": 40.0372032, "lon": -105.2589944, "tags": {"addr:city": "Boulder", "addr:housenumber": "2785", "addr:postcode": "80304", "addr:state": "CO", "addr:street": "Iris Avenue", "amenity": "restaurant", "cuisine": "mexican", "name": "Mojo Taqueria", "opening_hours": "Mo-Su 16:00-20:30; Fr,Sa 16:00-21:00", "source": "esri_USDOT_ColoradoOITGIS", "takeaway": "yes", "website": "https://mojotaqueria.com/"}}, {"type": "node", "id": 6467409319, "lat": 40.0373436, "lon": -105.2589909, "tags": {"addr:city": "Boulder", "addr:housenumber": "2777", "addr:postcode": "80304", "addr:state": "CO", "addr:street": "Iris Avenue", "amenity": "restaurant", "cuisine": "breakfast", "indoor_seating": "yes", "name": "Tangerine", "opening_hours": "Mo-Su 07:00-12:30", "outdoor_seating": "yes", "source": "esri_USDOT_ColoradoOITGIS", "website": "https://tangerineeats.com/"}}, {"type": "node", "id": 6467409333, "lat": 40.0371282, "lon": -105.2601334, "tags": {"addr:city": "Boulder", "addr:housenumber": "2719", "addr:postcode": "80304", "addr:state": "CO", "addr:street": "Iris Avenue", "amenity": "restaurant", "cuisine": "thai", "level": "0", "name": "Buddha Thai Cuisine", "source": "esri_USDOT_ColoradoOITGIS"}}, {"type": "node", "id": 6565195026, "lat": 40.0161096, "lon": -105.2841988, "tags": {"addr:city": "Boulder", "addr:housenumber": "835", "addr:postcode": "80302", "addr:street": "Walnut Street", "amenity": "bar", "name": "The Bitter Bar", "website": "https://www.thebitterbar.com/"}}, {"type": "node", "id": 6565195027, "lat": 40.0164282, "lon": -105.2825189, "tags": {"amenity": "restaurant", "name": "Boulder Chophouse & Tavern", "opening_hours": "Mo-Su 16:00-22:00; Fr,Sa 16:00-23:00", "website": "http://www.boulderchophouse.com/"}}, {"type": "node", "id": 6720401453, "lat": 40.0353272, "lon": -105.2544967, "tags": {"addr:city": "Boulder", "addr:housenumber": "3303", "addr:postcode": "80301", "addr:state": "CO", "addr:street": "30th Street", "amenity": "restaurant", "cuisine": "japanese", "name": "AOI Sushi and Izakaya", "phone": "+1-303-449-5394"}}, {"type": "node", "id": 6824497306, "lat": 39.9998504, "lon": -105.2556453, "tags": {"air_conditioning": "yes", "amenity": "restaurant", "cuisine": "vietnamese", "diet:vegan": "yes", "diet:vegetarian": "yes", "name": "Ph\u00f3", "opening_hours": "Tu-Su 11:00-21:00", "payment:credit_cards": "yes", "payment:debit_cards": "yes", "website": "https://www.phokitchenbargrill.net/"}}, {"type": "node", "id": 7435221440, "lat": 40.0180217, "lon": -105.2733726, "tags": {"addr:city": "Boulder", "addr:housenumber": "1634", "addr:postcode": "80302", "addr:state": "CO", "addr:street": "Walnut Street", "amenity": "restaurant", "cuisine": "middle_eastern;mediterranean", "name": "Arabesque", "opening_hours": "Mo-Sa 09:00-15:00", "phone": "+1-720-242-8623", "website": "http://www.arabesqueboulder.com/"}}, {"type": "node", "id": 7779491428, "lat": 40.0153517, "lon": -105.2487446, "tags": {"addr:city": "Boulder", "addr:housenumber": "3300", "addr:postcode": "80303", "addr:state": "CO", "addr:street": "Arapahoe Avenue", "amenity": "restaurant", "name": "Naked Lunch", "phone": "+1-303-449-4647", "website": "https://www.nakedlunchcolorado.com/"}}, {"type": "node", "id": 7816766201, "lat": 40.0149909, "lon": -105.247511, "tags": {"addr:city": "Boulder", "addr:housenumber": "3601", "addr:postcode": "80303", "addr:state": "CO", "addr:street": "Arapahoe Avenue", "addr:unit": "181", "amenity": "restaurant", "name": "Dry Storage", "opening_hours": "08:00-14:00", "phone": "+1-720-420-0918", "website": "https://www.drystorageco.com/"}}, {"type": "node", "id": 8095648584, "lat": 39.9977029, "lon": -105.2515636, "tags": {"amenity": "restaurant", "cuisine": "burger", "name": "The Grotto", "opening_hours:covid19": "closed", "phone": "+1-303-492-6325"}}, {"type": "node", "id": 8105545560, "lat": 40.0169171, "lon": -105.262643, "tags": {"addr:city": "Boulder", "addr:housenumber": "2460", "addr:postcode": "80302", "addr:state": "CO", "addr:street": "Canyon Boulevard", "addr:unit": "Suite #1", "amenity": "restaurant", "cuisine": "japanese", "name": "Osaka's", "opening_hours": "Mo,Th 17:00-20:00; Tu,We off; Fr-Su 16:30-20:30", "phone": "+1-720-398-9115", "website": "https://www.osakasrestaurant.com/"}}, {"type": "node", "id": 8246615756, "lat": 40.0173749, "lon": -105.2833772, "tags": {"addr:city": "Boulder", "addr:housenumber": "919", "addr:postcode": "80302", "addr:state": "CO", "addr:street": "Pearl Street", "amenity": "restaurant", "check_date": "2025-03-30", "name": "Zoe Ma Ma", "opening_hours": "Mo-Th,Su 11:00-21:00; Fr-Sa 11:00-21:30", "payment:cash": "yes", "payment:credit_cards": "yes", "payment:debit_cards": "yes", "website": "http://zoemama.com", "wheelchair": "yes"}}, {"type": "node", "id": 8822655917, "lat": 40.0187272, "lon": -105.2566879, "tags": {"addr:city": "Boulder", "addr:housenumber": "1805", "addr:postcode": "80301", "addr:state": "CO", "addr:street": "29th Street", "addr:unit": "1138", "amenity": "restaurant", "cuisine": "mexican", "internet_access": "wlan", "name": "Nopalito's", "opening_hours": "Mo-Fr 08:00-20:00; Sa 09:00-20:00, Su 09:00-19:00", "outdoor_seating": "no", "phone": "+1-720-881-9934", "website": "https://nopalitosboulder.com/"}}, {"type": "node", "id": 9228845179, "lat": 40.0197354, "lon": -105.2701757, "tags": {"addr:city": "Boulder", "addr:housenumber": "1918", "addr:postcode": "80302", "addr:street": "Pearl Street", "amenity": "restaurant", "name": "Dish Gourmet", "phone": "+1-720-565-5933", "website": "https://dishgourmet.com/"}}, {"type": "node", "id": 9239252760, "lat": 40.0148479, "lon": -105.26334, "tags": {"addr:city": "Boulder", "addr:housenumber": "2359", "addr:postcode": "80302", "addr:state": "CO", "addr:street": "Arapahoe Avenue", "addr:unit": "Suite A", "amenity": "restaurant", "cuisine": "sandwich", "name": "Zodiac Subs", "opening_hours": "Mo off; Tu,We,Su 11:00-18:00; Th-Sa 11:00-20:00", "phone": "+1-720-509-9446", "website": "https://www.zodiacsubs.com/"}}, {"type": "node", "id": 9239473979, "lat": 39.9975721, "lon": -105.2520809, "tags": {"addr:city": "Boulder", "addr:housenumber": "500", "addr:postcode": "80303", "addr:state": "CO", "addr:street": "30th Street", "amenity": "restaurant", "cuisine": "italian;mexican;american;indian", "name": "Williams Village Center Dining & Community Commons", "opening_hours": "Mo-Th 07:00-21:00; Fr 07:00-20:00; Sa 09:00-20:00; Su 09:00-21:00"}}, {"type": "node", "id": 10035337518, "lat": 40.0287235, "lon": -105.2558413, "tags": {"amenity": "restaurant", "bar": "yes", "brewery": "yes", "cuisine": "pizza", "diet:vegan": "yes", "diet:vegetarian": "yes", "name": "Fringe Pizza", "outdoor_seating": "yes", "website": "https://fringepizza.com/"}}, {"type": "node", "id": 10262920840, "lat": 40.0228369, "lon": -105.2578633, "tags": {"amenity": "restaurant", "name": "Wild Pastures Burger Co.", "website": "https://wildpasturesburger.com/"}}, {"type": "node", "id": 10262937409, "lat": 40.0306629, "lon": -105.2576416, "tags": {"addr:city": "Boulder", "addr:housenumber": "3070", "addr:postcode": "80301", "addr:state": "CO", "addr:street": "28th Street", "amenity": "restaurant", "cuisine": "mexican", "name": "VERDE", "opening_hours": "mo-th 11:00-20:30, fr 11:00-21:00, sa 11:30-21:00, su 11:30-20:00", "phone": "+1-720-470-4348", "source": "esri_USDOT_ColoradoOITGIS", "website": "https://www.verdeeatdrink.com/boulder"}}, {"type": "node", "id": 10571189301, "lat": 40.0170116, "lon": -105.2849398, "tags": {"addr:city": "Boulder", "addr:housenumber": "801", "addr:postcode": "80302", "addr:state": "CO", "addr:street": "Pearl Street", "amenity": "restaurant", "cuisine": "pizza", "name": "Nick-N-Willy's Pizza", "opening_hours": "Su-Th 11:00-21:00; Fr-Sa 11:00-22:00", "phone": "+1-303-444-9898", "website": "http://www.nicknwillys.com/"}}, {"type": "node", "id": 10571347714, "lat": 40.0166144, "lon": -105.2816619, "tags": {"addr:city": "Boulder", "addr:housenumber": "1023", "addr:postcode": "80302", "addr:state": "CO", "addr:street": "Walnut Street", "addr:unit": "400", "amenity": "restaurant", "bar": "yes", "cuisine": "spanish;steak_house", "name": "Corrida", "outdoor_seating": "yes", "phone": "+1-303-444-1333", "website": "https://www.corridaboulder.com"}}, {"type": "node", "id": 10731867106, "lat": 40.0232533, "lon": -105.2376288, "tags": {"addr:unit": "E", "amenity": "bar", "check_date:opening_hours": "2023-03-12", "lgbtq": "primary", "microbrewery": "yes", "name": "DV8 Distillery", "opening_hours": "Tu-Th 16:00-21:00; Fr,Sa 16:00-22:00", "website": "https://www.dv8.fun/"}}, {"type": "node", "id": 11119545302, "lat": 40.0162846, "lon": -105.2832224, "tags": {"addr:city": "Boulder", "addr:housenumber": "900", "addr:postcode": "80302", "addr:state": "CO", "addr:street": "Walnut Street", "addr:unit": "100", "amenity": "restaurant", "bar": "yes", "cuisine": "mexican;oaxacan", "highchair": "no", "name": "Masas Boulder", "outdoor_seating": "yes", "website": "https://www.masasboulder.com/"}}, {"type": "node", "id": 11429560932, "lat": 40.0178089, "lon": -105.2826068, "tags": {"addr:housenumber": "2018", "addr:street": "10th Street", "amenity": "bar", "name": "Jungle"}}, {"type": "node", "id": 11429560933, "lat": 40.0173196, "lon": -105.2821434, "tags": {"addr:housenumber": "1048", "addr:street": "Pearl Street", "addr:unit": "105", "amenity": "restaurant", "cuisine": "sushi", "level": "0", "name": "Hapa", "note": "Just opened at this new location (12.18.2023)", "opening_hours": "Su-Th 11:00-22:00; Fr-Sa 11:00-24:00", "website": "https://hapasushi.com/pages/pearl-street-in-boulder"}}, {"type": "node", "id": 11429560934, "lat": 40.0176902, "lon": -105.28162, "tags": {"addr:city": "Boulder", "addr:housenumber": "1043", "addr:postcode": "80302", "addr:street": "Pearl Street", "amenity": "restaurant", "name": "The Sophmore", "website": "https://www.sophomorerestaurant.com/"}}, {"type": "node", "id": 11447592690, "lat": 40.0175778, "lon": -105.282859, "tags": {"addr:city": "Boulder", "addr:housenumber": "2011", "addr:postcode": "80302", "addr:street": "10th Street", "amenity": "bar", "check_date": "2023-12-23", "name": "Tonic Herban Lounge"}}, {"type": "node", "id": 11584738055, "lat": 40.0474322, "lon": -105.2805714, "tags": {"addr:city": "Boulder", "addr:housenumber": "3970", "addr:postcode": "80304", "addr:state": "CO", "addr:street": "Broadway", "addr:unit": "101", "amenity": "restaurant", "cuisine": "spanish", "name": "Dagabi Cucina", "opening_hours": "Mo-Su 17:00-21:00", "outdoor_seating": "yes", "phone": "+13037869004", "reservation": "yes", "website": "https://dagabicucina.com/dagabiV2/"}}, {"type": "node", "id": 11756423632, "lat": 40.022037, "lon": -105.260624, "tags": {"addr:housenumber": "2607", "addr:street": "Pearl Street", "amenity": "restaurant", "description": "Middle eastern food in a laid back atmosphere. Counter service and great kebabs.", "name": "Silkroad Grill and Market"}}, {"type": "node", "id": 11937068401, "lat": 40.0185412, "lon": -105.2762371, "tags": {"addr:city": "Boulder", "addr:housenumber": "1468", "addr:postcode": "80302", "addr:state": "CO", "addr:street": "Pearl Street", "addr:unit": "110", "amenity": "restaurant", "brand:website": "https://www.postinowinecafe.com", "name": "Postino", "opening_hours": "11:00-23:00; Fr 11:00-24:00; Sa 09:00-24:00; Su 09:00-22:00", "phone": "+1 303 285 3755", "website": "https://www.postinowinecafe.com/locations/postino-boulder"}}, {"type": "node", "id": 11951018491, "lat": 40.01782, "lon": -105.2809799, "tags": {"air_conditioning": "yes", "amenity": "restaurant", "bar": "yes", "cuisine": "spanish", "diet:gluten_free": "yes", "diet:vegan": "yes", "diet:vegetarian": "yes", "highchair": "yes", "name": "Gemini", "outdoor_seating": "yes", "reservation": "recommended"}}, {"type": "node", "id": 12095486012, "lat": 40.0237469, "lon": -105.2377638, "tags": {"addr:city": "Boulder", "addr:housenumber": "2516", "addr:postcode": "80301", "addr:state": "CO", "addr:street": "49th Street", "addr:unit": "5", "amenity": "pub", "craft": "brewery", "microbrewery": "yes", "name": "Rocks and Hops Brewing", "opening_hours": "Th-Fr 17:00-21:00, Sa 13:00-21:00, Su 13:00-19:00", "website": "https://rocksandhopsbrewing.com/"}}, {"type": "way", "id": 88824755, "nodes": [1030768667, 1030768751, 1030769049, 1030768710, 1030768641, 1030768735, 1030768966, 1030768763, 1030769052, 1030769077, 1030769082, 1030768711, 1030768882, 1030768805, 1030768761, 1030769025, 1030768699, 1030768917, 1030768785, 1030768800, 1030768745, 1030768833, 1030768687, 1030768856, 1030768769, 1030769006, 1030768822, 1030769028, 1030768667], "tags": {"addr:city": "Boulder", "addr:housenumber": "2922", "addr:postcode": "80303", "addr:state": "CO", "addr:street": "Baseline Road", "amenity": "pub", "building": "retail", "building:levels": "1", "name": "Dark Horse", "opening_hours": "Mo-Su 11:00-02:00", "phone": "+1 303 442 8162", "roof:levels": "1", "roof:shape": "many", "website": "http://www.darkhorsebar.com"}}, {"type": "way", "id": 94750792, "nodes": [1100122167, 1100122182, 4497730175, 1100122144, 1100122077, 1100122147, 1100122167], "tags": {"addr:city": "Boulder", "addr:housenumber": "2543", "addr:postcode": "80304", "addr:state": "CO", "addr:street": "Broadway", "amenity": "pub", "building": "yes", "ele": "1640", "level": "1", "name": "The Hungry Toad", "opening_hours": "Mo-Su 11:00-22:00", "smoking": "no", "source": "Bing", "website": "https://thehungrytoad.com/"}}, {"type": "way", "id": 105068893, "nodes": [1211146595, 1211146575, 1211146617, 1211146599, 1211146650, 1211146684, 1211146581, 5087585870, 1211146578, 1211146621, 1211146668, 1211146562, 1211146540, 1211146584, 1211146638, 1211146595], "tags": {"addr:city": "Boulder", "addr:postcode": "80302", "addr:state": "CO", "addr:street": "Clematis Drive", "alt_name": "Dining Hall", "amenity": "restaurant", "building": "retail", "cuisine": "regional", "email": "reservations@chautauquadininghall.com", "name": "Chautauqua Dining Hall", "opening_hours": "Mo-Su 0800-close", "opening_hours:brunch": "Mo-Su 0800-1500", "opening_hours:dinner": "Mo-Su 1700-close", "opening_hours:midday": "Mo-Su 1500-1800", "operator": "Three Leaf Concepts", "phone": "+1 (303) 440-3776", "phone:special_events": "+1 (303) 443-3901"}}, {"type": "way", "id": 147841197, "nodes": [1609869630, 1609869700, 1609869650, 1609869634, 1609869630], "tags": {"addr:city": "Boulder", "addr:country": "US", "addr:housenumber": "2655", "addr:postcode": "80304", "addr:state": "CO", "addr:street": "28th Street", "amenity": "restaurant", "building": "retail", "building:levels": "1", "cuisine": "vietnamese", "name": "Chez Thuy", "opening_hours": "Mo-Sa 11:00-22:00, Su 16:00-22:00", "source": "esri_USDOT_ColoradoOITGIS", "website": "https://www.chezthuy.com/"}}, {"type": "way", "id": 195664895, "nodes": [2060843086, 6009128588, 6009128590, 6009128589, 6009128587, 2060843087, 2060843089, 3704103714, 3704103694, 3704103664, 3704103660, 2060843088, 2060843086], "tags": {"addr:city": "Boulder", "addr:housenumber": "2366", "addr:postcode": "80301", "addr:state": "CO", "addr:street": "Junction Place", "amenity": "restaurant", "building": "yes", "cuisine": "american", "disused:railway": "station", "historic": "train_station", "name": "Roadhouse Boulder Depot", "old_name": "Boulder Railroad Depot (Historic)", "website": "https://roadhouseboulderdepot.com/", "wikidata": "Q4949588", "wikipedia": "en:Boulder station"}}, {"type": "way", "id": 199931299, "nodes": [2099200364, 2099200334, 2099200372, 2099200340, 2099200364], "tags": {"addr:city": "Boulder", "addr:housenumber": "1630", "addr:state": "CO", "addr:street": "30th Street", "addr:unit": "B", "amenity": "restaurant", "building": "commercial", "cuisine": "vietnamese", "name": "Vina Pho & Grill", "opening_hours": "Mo-Su 10:30-21:00", "website": "https://www.facebook.com/vinaphogrill"}}, {"type": "way", "id": 199931303, "nodes": [2099200314, 2099200355, 2099200327, 2099200371, 2099200314], "tags": {"addr:city": "Boulder", "addr:housenumber": "3075A", "addr:state": "CO", "addr:street": "Arapahoe Avenue", "amenity": "restaurant", "building": "retail", "cuisine": "bagel", "name": "Moe's Broadway Bagels", "not:brand:wikidata": "Q6889938", "opening_hours": "Mo-Su 05:30-17:00"}}, {"type": "way", "id": 199931319, "nodes": [2099200495, 2099200314, 2099200371, 2099200497, 2099200495], "tags": {"addr:city": "Boulder", "addr:housenumber": "3075", "addr:state": "CO", "addr:street": "Arapahoe Avenue", "addr:unit": "B", "amenity": "restaurant", "building": "retail", "check_date": "2024-12-16", "cuisine": "italian", "name": "Il Pastaio", "opening_hours": "Mo-Th 11:00-21:00; Fr 11:00-22:00", "phone": "+1 303-447-9572"}}, {"type": "way", "id": 207394089, "nodes": [25765941, 2176408033, 2176408035, 2176408037, 2176408038, 2176408040, 2176408042, 2176408044, 2176408046, 2176408048, 2176408050, 2176408052, 25765941], "tags": {"addr:city": "Boulder", "addr:housenumber": "1770", "addr:postcode": "80302", "addr:state": "CO", "addr:street": "13th Street", "amenity": "restaurant", "building": "retail", "check_date": "2023-04-20", "cuisine": "asian;teahouse", "diet:vegan": "yes", "diet:vegetarian": "yes", "name": "Boulder Dushanbe Tea House", "opening_hours": "Mo-Su 08:00-21:00", "outdoor_seating": "yes", "payment:credit_cards": "yes", "payment:mastercard": "yes", "payment:visa": "yes", "phone": "+1-303-442-4993", "reservation": "recommended", "source": "esri_USDOT_ColoradoOITGIS", "website": "https://www.boulderteahouse.com/", "wikidata": "Q5316869"}}, {"type": "way", "id": 221537034, "nodes": [2305659906, 2305659908, 2305659925, 2305659928, 2305659929, 2305659930, 2305659910, 2305659913, 2305659915, 2305659917, 2305659919, 2305659921, 2305659923, 2305659906], "tags": {"addr:housenumber": "2319", "addr:state": "CO", "addr:street": "Arapahoe Avenue", "amenity": "restaurant", "building": "yes", "cuisine": "pizza", "name": "Backcountry Pizza & Tap House", "opening_hours": "Mo-Th 11:00-22:00; Fr-Sa 11:00-23:00; Su 10:00-21:00", "website": "http://backcountrypizzaandtaphouse.com/"}}, {"type": "way", "id": 222072943, "nodes": [2310491039, 2310496204, 2310491040, 2310491041, 2310491042, 2310491043, 2310491044, 2310491045, 2310491046, 2310491047, 2310491048, 2310496203, 2310491039], "tags": {"addr:housenumber": "1690", "addr:state": "CO", "addr:street": "28th Street", "amenity": "restaurant", "brand": "BJ's", "brand:wikidata": "Q4835755", "building": "retail", "building:levels": "1", "check_date": "2024-09-22", "cuisine": "american", "name": "BJ's", "official_name": "BJ's Restaurant & Brewhouse", "opening_hours": "Mo-Su 11:00-23:00; Fr,Sa 11:00-24:00", "phone": "+1 303-440-5200", "roof:levels": "0", "website": "https://www.bjsrestaurants.com/locations/co/boulder-29th-street"}}, {"type": "way", "id": 242130410, "nodes": [2496684175, 2496684166, 2496684165, 2496684173, 2496684175], "tags": {"addr:city": "Boulder", "addr:housenumber": "825", "addr:postcode": "80302", "addr:state": "CO", "addr:street": "Walnut Street", "amenity": "restaurant", "building": "yes", "cuisine": "nepalese", "name": "Sherpa's", "opening_hours": "Th-Sa 11:00-15:00,17:00-22:00; Su-We 11:00-15:00,17:00-21:30", "phone": "+1-303-440-7151", "website": "https://www.sherpasrestaurant.com/"}}, {"type": "way", "id": 243080120, "nodes": [2505180572, 2505180560, 2505180558, 2505180570, 2505180572], "tags": {"addr:city": "Boulder", "addr:housenumber": "1501", "addr:postcode": "80302", "addr:state": "CO", "addr:street": "Arapahoe Avenue", "amenity": "restaurant", "building": "yes", "diet:vegan": "only", "name": "Thrive", "opening_hours": "Mo-Th 09:00-21:00; Fr-Sa 09:00-23:00; Su 10:00-17:00", "source": "esri_USDOT_ColoradoOITGIS"}}, {"type": "way", "id": 262966181, "nodes": [2686077528, 2686077529, 2686077532, 2686077533, 2686077531, 2686077528], "tags": {"addr:housename": "Luciles", "addr:housenumber": "2124", "addr:postcode": "80302", "addr:state": "CO", "addr:street": "14th Street", "amenity": "restaurant", "building": "house", "name": "Luciles", "website": "https://www.luciles.com/locations-a-menus/49-boulder-location-a-menu"}}, {"type": "way", "id": 273171203, "nodes": [2780521774, 2780521776, 2780521777, 2780521778, 2780521774], "tags": {"addr:city": "Boulder", "addr:housenumber": "2850", "addr:postcode": "80303", "addr:state": "CO", "addr:street": "Arapahoe Avenue", "amenity": "restaurant", "building": "yes", "name": "Harpo's Bar and Grill", "source": "esri_USDOT_ColoradoOITGIS"}}, {"type": "way", "id": 320609848, "nodes": [3272048742, 3272048743, 3272048744, 3272048745, 3272048746, 3272048747, 3272048748, 3272048749, 3272048750, 3272048751, 3272048752, 3272048742], "tags": {"addr:city": "Boulder", "addr:housenumber": "1606", "addr:postcode": "80301", "addr:state": "CO", "addr:street": "Conestoga Street", "amenity": "restaurant", "building": "retail", "building:levels": "1", "name": "Blackbelly Market"}}, {"type": "way", "id": 384459774, "nodes": [3877484479, 3877484480, 3877484481, 3877484482, 3877484479], "tags": {"addr:housenumber": "1964", "addr:state": "CO", "addr:street": "28th Street", "amenity": "restaurant", "building": "retail", "cuisine": "nepalese", "name": "Kathmandu Restaurant II"}}, {"type": "way", "id": 436781915, "nodes": [4346525682, 4346525683, 4346525684, 4346525685, 5893839007, 4346525686, 4346525687, 4346525688, 4346526389, 4346525682], "tags": {"addr:city": "Boulder", "addr:housenumber": "2775", "addr:postcode": "80304", "addr:state": "CO", "addr:street": "Valmont Road", "amenity": "bar", "building": "yes", "description": "Rayback Collective is Boulder's first ever food truck park, a beer garden, and a live music venue", "name": "The Rayback Collective", "opening_hours": "Mo-Fr 11:00-22:00; Sa 11:00-23:00; Su 11:00-21:00", "smoking": "no", "source": "esri_USDOT_ColoradoOITGIS"}}, {"type": "way", "id": 461634126, "nodes": [4571073719, 4571073718, 4571073717, 4571073710, 4571073716, 3942622414, 4571073709, 4571073715, 4571073714, 4571073713, 4571073712, 4571073711, 4571073719], "tags": {"addr:city": "Boulder", "addr:housenumber": "1138", "addr:postcode": "80302", "addr:state": "CO", "addr:street": "Flagstaff Road", "air_conditioning": "yes", "amenity": "restaurant", "bar": "yes", "building": "yes", "cuisine": "american;fine_dining", "delivery": "no", "diet:local": "yes", "name": "Flagstaff House", "opening_hours": "Su-Fr 18:00-22:00, Sa 17:00-22:00", "outdoor_seating": "yes", "phone": "+1-303-442-4640", "reservation": "required", "website": "https://flagstaffhouse.com/"}}, {"type": "way", "id": 466530318, "nodes": [4613107622, 4613107621, 4613107620, 4613107619, 4613107618, 4613107617, 4613107622], "tags": {"addr:city": "Boulder", "addr:housenumber": "1600", "addr:postcode": "80302", "addr:state": "CO", "addr:street": "Broadway", "amenity": "restaurant", "building": "retail", "cuisine": "thai", "name": "Khow Thai Cafe", "phone": "+1 303 4470273", "source": "esri_USDOT_ColoradoOITGIS"}}]}